NICKNAME=GSAT0225 (GALILEO 29)
TLE1=1 59598U 24079A   26079.24176023  .00000055  00000+0  00000+0 0  9995
TLE2=2 59598  55.0600 103.5641 0002781 265.0538  92.6447  1.70474699 11798

[40105]
VERSION=1.1
NAME=GPS BIIF-7  (PRN 09)
NICKNAME=GPS BIIF-7  (PRN 09)
TLE1=1 40105U 14045A   26079.30276853  .00000043  00000+0  00000+0 0  9997
TLE2=2 40105  55.2929  92.0041 0031375 120.1447 240.2152  2.00552473 84295

[63218]
VERSION=1.1
NAME=TEVEL2-3
NICKNAME=TEVEL2-3
TLE1=1 63218U 25052J   26080.67442333  .00027902  00000+0  93614-3 0  9997
TLE2=2 63218  97.3979 336.7671 0005056  81.5601 278.6213 15.30837396 56696

[38552]
VERSION=1.1
NAME=METEOSAT-10 (MSG-3)
NICKNAME=METEOSAT-10 (MSG-3)
TLE1=1 38552U 12035B   26081.19846436 -.00000005  00000+0  00000+0 0  9996
TLE2=2 38552   4.4653  61.3756 0002363 280.3944 269.4634  1.00269874 49980

[21088]
VERSION=1.1
NAME=SL-8 R/B
NICKNAME=SL-8 R/B
TLE1=1 21088U 91006B   26081.26162942  .00000100  00000+0  84942-4 0  9995
TLE2=2 21088  82.9456 160.6998 0022289   3.7635  50.0772 13.77496035765803

[45854]
VERSION=1.1
NAME=GPS BIII-3  (PRN 23)
NICKNAME=GPS BIII-3  (PRN 23)
TLE1=1 45854U 20041A   26081.10626129 -.00000054  00000+0  00000+0 0  9995
TLE2=2 45854  56.6171  32.3227 0061568 205.2115 245.5086  2.00560024 42291

[27424]
VERSION=1.1
NAME=AQUA
NICKNAME=AQUA
TLE1=1 27424U 02022A   26081.20835860  .00001009  00000+0  21100-3 0  9990
TLE2=2 27424  98.4196  48.8033 0000876 115.6506 301.4365 14.62004776270568

[41861]
VERSION=1.1
NAME=GSAT0213 (GALILEO 17)
NICKNAME=GSAT0213 (GALILEO 17)
TLE1=1 41861U 16069C   26079.97880267  .00000052  00000+0  00000+0 0  9998
TLE2=2 41861  55.4405 103.5282 0005634 295.5985  64.4098  1.70474718 58011

[41852]
VERSION=1.1
NAME=AEROCUBE 8D
NICKNAME=AEROCUBE 8D
TLE1=1 41852U 16067E   26080.88277929  .00011680  00000+0  49833-3 0  9993
TLE2=2 41852  98.0808 304.4331 0004894  81.4790 278.6999 15.23086076512777

[43194]
VERSION=1.1
NAME=ZHANGHENG 1-01 (CSES-1)
NICKNAME=ZHANGHENG 1-01 (CSES-1)
TLE1=1 43194U 18015C   26081.28863021  .00010060  00000+0  45974-3 0  9991
TLE2=2 43194  97.6780 245.2556 0017918 193.4399 166.6361 15.20628928451432

[33053]
VERSION=1.1
NAME=FGRST (GLAST)
NICKNAME=FGRST (GLAST)
TLE1=1 33053U 08029A   26080.40802014  .00004079  00000+0  15270-3 0  9995
TLE2=2 33053  25.5817  93.7460 0008270  13.7192 346.3570 15.23419894982433

[39430]
VERSION=1.1
NAME=GOMX-1
NICKNAME=GOMX-1
TLE1=1 39430U 13066Q   26081.22052619  .00001713  00000+0  26418-3 0  9994
TLE2=2 39430  97.6550 287.1447 0129282 357.4614   2.5921 14.69141520657145

[40025]
VERSION=1.1
NAME=QB50P1
NICKNAME=QB50P1
TLE1=1 40025U 14033R   26080.91561359  .00012039  00000+0  61606-3 0  9993
TLE2=2 40025  98.1006  86.0271 0009688 153.7656 206.4068 15.16758667639797

[57204]
VERSION=1.1
NAME=SITRO-AIS 12 (SMIRENNIY)
NICKNAME=SITRO-AIS 12 (SMIRENNIY)
TLE1=1 57204U 23091AQ  26081.27634711  .00022985  00000+0  67486-3 0  9990
TLE2=2 57204  97.5164 150.1368 0006945  29.8150 330.3488 15.35129527151427

[51850]
VERSION=1.1
NAME=GOES 18
NICKNAME=GOES 18
TLE1=1 51850U 22021A   26081.24257787  .00000097  00000+0  00000+0 0  9999
TLE2=2 51850   0.0451  31.4221 0000337  26.6894  71.9648  1.00267915  5722

[17328]
VERSION=1.1
NAME=MOLNIYA 3-31
NICKNAME=MOLNIYA 3-31
TLE1=1 17328U 87008A   26079.09744463 -.00000416  00000+0 -17248-2 0  9991
TLE2=2 17328  62.1673 286.4832 7374528 259.0607  17.8052  2.00695967283387

[21819]
VERSION=1.1
NAME=INTERCOSMOS 25
NICKNAME=INTERCOSMOS 25
TLE1=1 21819U 91086A   26081.04011576  .00001623  00000+0  31084-3 0  9996
TLE2=2 21819  82.6029 302.5429 1486761  90.3227 286.7692 12.12042016498180

[28912]
VERSION=1.1
NAME=METEOSAT-9 (MSG-2)
NICKNAME=METEOSAT-9 (MSG-2)
TLE1=1 28912U 05049B   26080.99367020  .00000128  00000+0  00000+0 0  9991
TLE2=2 28912   9.1650  55.0049 0000319 156.3251  11.5575  1.00267209  6124

[59051]
VERSION=1.1
NAME=METEOR-M2 4
NICKNAME=METEOR-M2 4
TLE1=1 59051U 24039A   26081.24045083  .00000034  00000+0  34816-4 0  9993
TLE2=2 59051  98.6925  41.6732 0008139  65.1205 295.0818 14.22419096106901

[41862]
VERSION=1.1
NAME=GSAT0214 (GALILEO 18)
NICKNAME=GSAT0214 (GALILEO 18)
TLE1=1 41862U 16069D   26080.71144694  .00000047  00000+0  00000+0 0  9994
TLE2=2 41862  55.4398 103.5008 0004661 300.0353  59.9793  1.70474567 58157

[43823]
VERSION=1.1
NAME=GEO-KOMPSAT-2A
NICKNAME=GEO-KOMPSAT-2A
TLE1=1 43823U 18100A   26081.22385780 -.00000343  00000+0  00000+0 0  9991
TLE2=2 43823   0.0472  15.9049 0001274  26.0336 346.6295  1.00273259 26751

[61183]
VERSION=1.1
NAME=GSAT0226 (GALILEO 31)
NICKNAME=GSAT0226 (GALILEO 31)
TLE1=1 61183U 24167B   26078.93161704  .00000021  00000+0  00000+0 0  9994
TLE2=2 61183  55.2135 223.7670 0001645 145.8785 215.7879  1.70474039  9332

[12553]
VERSION=1.1
NAME=NOAA 7
NICKNAME=NOAA 7
TLE1=1 12553U 81059A   26081.08197062  .00000062  00000+0  52203-4 0  9992
TLE2=2 12553  98.8035 149.0265 0011976 152.9880 207.1921 14.17775845312406

[40534]
VERSION=1.1
NAME=GPS BIIF-9  (PRN 26)
NICKNAME=GPS BIIF-9  (PRN 26)
TLE1=1 40534U 15013A   26080.80753571  .00000032  00000+0  00000+0 0  9991
TLE2=2 40534  53.1825 207.7904 0108782  39.8969 320.8731  2.00556412 80075

[41752]
VERSION=1.1
NAME=INSAT-3DR
NICKNAME=INSAT-3DR
TLE1=1 41752U 16054A   26081.14187081 -.00000076  00000+0  00000+0 0  9994
TLE2=2 41752   0.0930  88.8671 0012918 193.1857  22.6494  1.00271132 34940

[43678]
VERSION=1.1
NAME=DIWATA-2B
NICKNAME=DIWATA-2B
TLE1=1 43678U 18084H   26081.26337487  .00002542  00000+0  20925-3 0  9999
TLE2=2 43678  98.1032 273.8163 0013082  88.9742 271.2979 15.00020117403185

[37389]
VERSION=1.1
NAME=X-SAT
NICKNAME=X-SAT
TLE1=1 37389U 11015C   26081.24014127  .00000092  00000+0  56870-4 0  9996
TLE2=2 37389  98.3448  62.4400 0012905 236.1880 123.8072 14.25177271775299

[41924]
VERSION=1.1
NAME=IRIDIUM 108
NICKNAME=IRIDIUM 108
TLE1=1 41924U 17003H   26081.10340807  .00000017  00000+0 -85318-6 0  9990
TLE2=2 41924  86.3905  93.1856 0002257  91.0046 269.1408 14.34217519482620

[37731]
VERSION=1.1
NAME=CZ-2C R/B
NICKNAME=CZ-2C R/B
TLE1=1 37731U 11030B   26081.16698483  .00001477  00000+0  19216-3 0  9998
TLE2=2 37731  97.8567  38.1823 0051396 311.0065  58.9699 14.81265842791947

[39423]
VERSION=1.1
NAME=WNISAT-1
NICKNAME=WNISAT-1
TLE1=1 39423U 13066H   26080.91659005  .00001447  00000+0  27056-3 0  9996
TLE2=2 39423  97.7067 236.3347 0164306 146.4457 214.7282 14.57914581654015

[40968]
VERSION=1.1
NAME=SINOD-D 1
NICKNAME=SINOD-D 1
TLE1=1 40968U 15058E   26080.94730186  .00004965  00000+0  40700-3 0  9997
TLE2=2 40968  64.7758 171.9577 0116951  88.1214 273.3290 14.95173150103613

[64881]
VERSION=1.1
NAME=239ALFEROV (RS61S)
NICKNAME=239ALFEROV (RS61S)
TLE1=1 64881U 25155F   26081.26702856  .00017554  00000+0  59912-3 0  9998
TLE2=2 64881  97.4492  50.0274 0009666 116.6852 243.5379 15.30346466 67507

[39441]
VERSION=1.1
NAME=NEE-02 KRYSAOR
NICKNAME=NEE-02 KRYSAOR
TLE1=1 39441U 13066AB  26081.10271062  .00003640  00000+0  40410-3 0  9997
TLE2=2 39441  97.8834  20.9932 0066633 356.7048   3.3719 14.86243167663262

[57172]
VERSION=1.1
NAME=UMKA 1 (RS40S)
NICKNAME=UMKA 1 (RS40S)
TLE1=1 57172U 23091G   26081.28020511  .00008075  00000+0  37947-3 0  9995
TLE2=2 57172  97.5146 140.3347 0014467  67.1143 293.1617 15.19773213150804

[41925]
VERSION=1.1
NAME=IRIDIUM 112
NICKNAME=IRIDIUM 112
TLE1=1 41925U 17003J   26081.20197034  .00000232  00000+0  75778-4 0  9999
TLE2=2 41925  86.3952 124.6874 0002217  91.0125 269.1325 14.34218626480803

[54149]
VERSION=1.1
NAME=GSLV R/B
NICKNAME=GSLV R/B
TLE1=1 54149U 22138AN  26081.28930852  .00003744  00000+0  32244-3 0  9998
TLE2=2 54149  87.3866 162.1448 0024047 104.7824 255.6075 14.96853905185815

[21263]
VERSION=1.1
NAME=NOAA 12
NICKNAME=NOAA 12
TLE1=1 21263U 91032A   26081.23671012  .00000081  00000+0  51317-4 0  9997
TLE2=2 21263  98.6168  71.0437 0012519 283.9347  76.0441 14.26721403812564

[43786]
VERSION=1.1
NAME=ITASAT
NICKNAME=ITASAT
TLE1=1 43786U 18099AE  26081.10304202  .00009895  00000+0  49083-3 0  9991
TLE2=2 43786  97.4134 134.3794 0011307 299.0684  60.9417 15.17864192399696

[28738]
VERSION=1.1
NAME=CZ-2D R/B
NICKNAME=CZ-2D R/B
TLE1=1 28738U 05024B   26080.76326130  .00059126  00000+0  69651-3 0  9995
TLE2=2 28738  97.3584  96.3614 0003719  11.2669 348.8671 15.61200388141669

[40045]
VERSION=1.1
NAME=AEROCUBE 6A
NICKNAME=AEROCUBE 6A
TLE1=1 40045U 14033AM  26080.89596889  .00008149  00000+0  70234-3 0  9992
TLE2=2 40045  97.7158 248.8752 0038072 308.9242  50.8587 14.97013190633556

[43926]
VERSION=1.1
NAME=IRIDIUM 169
NICKNAME=IRIDIUM 169
TLE1=1 43926U 19002E   26081.02930678  .00000206  00000+0  60671-4 0  9999
TLE2=2 43926  86.4187  61.6216 0001589 101.7089 258.4288 14.38609511377698

[37841]
VERSION=1.1
NAME=SRMSAT
NICKNAME=SRMSAT
TLE1=1 37841U 11058D   26081.07806891  .00000439  00000+0  94552-4 0  9998
TLE2=2 37841  19.9708 226.7211 0011787 326.1591 190.0917 14.11552321745492

[41330]
VERSION=1.1
NAME=COSMOS 2514 (751)
NICKNAME=COSMOS 2514 (751)
TLE1=1 41330U 16008A   26081.00287017 -.00000022  00000+0  00000+0 0  9991
TLE2=2 41330  65.0720 316.0007 0008998 204.8305 155.1875  2.13102579 78766

[43803]
VERSION=1.1
NAME=JY1SAT (JO-97)
NICKNAME=JY1SAT (JO-97)
TLE1=1 43803U 18099AX  26081.10830665  .00024651  00000+0  82997-3 0  9996
TLE2=2 43803  97.4225 143.7865 0005597 205.0497 155.0474 15.30747105400290

[36411]
VERSION=1.1
NAME=EWS-G2 (GOES 15)
NICKNAME=EWS-G2 (GOES 15)
TLE1=1 36411U 10008A   26081.13970413  .00000023  00000+0  00000+0 0  9992
TLE2=2 36411   1.0502  84.6594 0002466  19.2000 189.4227  1.00269861 58763

[29505]
VERSION=1.1
NAME=SHIJIAN-6 02A (SJ-6 02A)
NICKNAME=SHIJIAN-6 02A (SJ-6 02A)
TLE1=1 29505U 06046A   26081.25400694  .00015647  00000+0  81948-3 0  9999
TLE2=2 29505  97.6467 121.6876 0004746  85.5709 274.6066 15.15889637 59095

[7276]
VERSION=1.1
NAME=MOLNIYA 2-9
NICKNAME=MOLNIYA 2-9
TLE1=1 07276U 74026A   26077.46529229  .00000009  00000+0  00000+0 0  9999
TLE2=2 07276  64.4060  33.8091 6682830 263.8074  22.4525  2.45097254282797

[50466]
VERSION=1.1
NAME=XW-3 (CAS-9)
